279P/La Sagra,e,5.0525,346.2338,5.8271,3.573315,0.1459141,0.39863670,288.4195,12/15.0/2021,2000,g 14.0,4.0
# From MPC 89013
280P/Larsen,e,11.7747,131.3933,104.7716,4.529817,0.1022311,0.41743693,298.8937,12/15.0/2021,2000,g 12.5,4.0
# From MPEC 2021-W31
281P/MOSS,e,4.7192,87.1795,26.6843,4.873636,0.0916061,0.17216877,322.0880,12/15.0/2021,2000,g 11.0,4.0
# From MPC133426
282P/,e,5.8116,9.2968,217.6299,4.240450,0.1128720,0.18853135,5.7983,12/15.0/2021,2000,g 13.5,2.0
# From MPEC 2021-BE3
283P/Spacewatch,e,14.4552,161.1292,22.2434,4.138091,0.1170858,0.48474467,11.4744,12/15.0/2021,2000,g 16.0,2.0
# From MPEC 2021-WD8
284P/McNaught,e,11.8614,144.2630,202.4309,3.677742,0.1397437,0.37578612,13.0441,12/15.0/2021,2000,g 13.0,4.0
# From MPC 85339
285P/LINEAR,e,25.0382,185.5066,178.4334,4.507503,0.1029912,0.61851608,319.4830,12/15.0/2021,2000,g 15.0,4.0
# From MPEC 2021-O56
286P/Christensen,e,17.0457,283.9568,24.8573,4.108807,0.1183397,0.42537539,342.4087,12/15.0/2021,2000,g 14.0,4.0
# From MPC 96868
287P/Christensen,e,16.3199,139.0440,189.0105,4.164056,0.1159923,0.27101955,294.2933,12/15.0/2021,2000,g 13.5,4.0
# From MPC133426
288P/,e,3.2378,83.1524,280.3110,3.051576,0.1848919,0.20142783,345.7334,12/15.0/2021,2000,g 16.0,2.0
# From MPEC 2021-S45
289P/Blanpain,e,5.8959,68.8825,9.8517,3.046358,0.1853671,0.68558704,134.3945,12/15.0/2021,2000,g 19.0,4.0
# From MPC 95214
290P/Jager,e,20.1014,302.6877,181.9105,6.212463,0.0636515,0.62823499,183.0721,12/15.0/2021,2000,g 10.5,4.0
# From MPEC 2021-N06
291P/NEAT,e,6.3004,237.9372,173.6743,4.532333,0.1021460,0.43551819,308.2771,12/15.0/2021,2000,g 13.0,4.0
# From MPC115887
292P/Li,e,24.2701,90.9616,319.4701,6.105415,0.0653328,0.58879365,187.7882,12/15.0/2021,2000,g 12.5,4.0
# From MPEC 2021-S45
293P/Spacewatch,e,9.0569,78.4022,41.0199,3.642874,0.1417548,0.41823206,51.1501,12/15.0/2021,2000,g 14.5,4.0
# From MPEC 2020-SI8
294P/LINEAR,e,18.1558,312.4441,235.3190,3.195883,0.1725114,0.59930553,128.3496,12/15.0/2021,2000,g 15.5,4.0
# From MPC 93589
295P/LINEAR,e,21.0741,7.4355,72.8799,5.306179,0.0806364,0.61642884,224.3358,12/15.0/2021,2000,g 12.0,4.0
# From MPEC 2021-N06
296P/Garradd,e,25.2302,263.5943,350.0669,3.495234,0.1508307,0.47871933,68.3638,12/15.0/2021,2000,g 14.0,4.0
# From MPC102956
297P/Beshore,e,10.3239,97.6488,132.6433,3.446020,0.1540733,0.31973087,50.1790,12/15.0/2021,2000,g 15.0,4.0
# From MPC114609
298P/Christensen,e,7.8709,52.8226,100.6591,3.590935,0.1448414,0.38647649,67.3184,12/15.0/2021,2000,g 15.0,4.0
# From MPC101100
299P/Catalina-PANSTARRS,e,10.4717,271.6219,323.8517,4.386247,0.1072913,0.28119575,266.8654,12/15.0/2021,2000,g 11.5,4.0
# From MPC114609
300P/Catalina,e,5.6743,95.6452,222.9145,2.699730,0.2221895,0.69177986,252.8936,12/15.0/2021,2000,g 16.0,4.0
# From MPC 89014
301P/LINEAR-NEAT,e,10.3397,351.1748,193.6593,5.739399,0.0716811,0.58515850,191.2550,12/15.0/2021,2000,g 13.0,4.0
# From MPEC 2020-HN5
302P/Lemmon-PANSTARRS,e,6.0339,121.7504,208.3230,4.275154,0.1115004,0.23027723,228.5816,12/15.0/2021,2000,g 12.5,4.0
# From MPC 92278
303P/NEAT,e,7.0217,347.9723,356.9165,5.046136,0.0869492,0.51083734,227.2510,12/15.0/2021,2000,g 13.5,4.0
# From MPEC 2020-N08
304P/Ory,e,2.6069,58.9214,335.2398,3.150659,0.1762390,0.60067188,86.2707,12/15.0/2021,2000,g 16.5,4.0
# From MPC101100
305P/Skiff,e,11.6567,240.1070,147.3152,4.642789,0.0985226,0.69359998,254.7500,12/15.0/2021,2000,g 18.0,4.0
# From MPC 92278
306P/LINEAR,e,8.3115,341.3728,0.8583,3.123543,0.1785389,0.59331981,123.5452,12/15.0/2021,2000,g 19.0,4.0
# From MPC 92278
307P/LINEAR,e,4.4353,158.1640,222.1289,5.791557,0.0707149,0.67509686,180.2809,12/15.0/2021,2000,g 15.0,4.0
# From MPC109148
308P/Lagerkvist-Carsenty,e,4.8521,63.0655,333.5985,6.602144,0.0581001,0.36390607,140.2112,12/15.0/2021,2000,g 13.0,2.0
# From MPC 94284
309P/LINEAR,e,17.0237,10.1462,49.9420,4.372172,0.1078098,0.61786994,269.9370,12/15.0/2021,2000,g 15.0,4.0
# From MPC 98566
310P/Hill,e,13.1278,8.9239,31.8020,4.179217,0.1153617,0.42202990,281.7321,12/15.0/2021,2000,g 13.5,4.0
# From MPEC 2021-BE3
311P/PANSTARRS,e,4.9695,279.2182,144.5436,2.188597,0.3044076,0.11563764,131.9978,12/15.0/2021,2000,g 17.0,4.0
# From MPEC 2021-BE3
312P/NEAT,e,19.7683,144.6692,207.5859,3.467750,0.1526274,0.42788798,68.0548,12/15.0/2021,2000,g 16.0,4.0
# From MPEC 2021-S45
313P/Gibbs,e,10.9815,105.9721,254.7501,3.163269,0.1751862,0.23504131,106.5666,12/15.0/2021,2000,g 15.0,4.0
# From MPC105243
314P/Montani,e,3.9817,267.6091,214.0553,7.265089,0.0503318,0.41612981,95.3566,12/15.0/2021,2000,g  9.5,4.0
# From MPEC 2021-N06
315P/LONEOS,e,17.7474,68.8587,65.7192,4.939712,0.0897742,0.52108980,165.5542,12/15.0/2021,2000,g 11.0,4.0
# From MPC 92279
316P/LONEOS-Christensen,e,9.8325,246.5284,192.8782,4.368609,0.1079417,0.15643085,244.7361,12/15.0/2021,2000,g 13.5,4.0
# From MPEC 2020-C98
317P/WISE,e,11.9503,275.4982,334.8685,2.963553,0.1931901,0.57047806,85.9474,12/15.0/2021,2000,g 17.5,4.0
# From MPC102103
318P/McNaught-Hartley,e,17.8819,35.5524,313.2305,7.500201,0.0479838,0.67530563,107.6067,12/15.0/2021,2000,g  8.5,6.0
# From MPC 97499
319P/Catalina-McNaught,e,15.0950,111.3706,203.6780,3.566221,0.1463497,0.66659875,344.4234,12/15.0/2021,2000,g 15.0,4.0
# From MPC 96281
320P/McNaught,e,4.9085,295.9331,0.7792,3.093602,0.1811371,0.68562135,60.1165,12/15.0/2021,2000,g 20.5,4.0
# From MPC105243
321P/SOHO,e,20.0904,165.0179,172.7470,2.423469,0.2612449,0.98111457,0.0000,10/26.4488/2023,2000,g 20.0,4.0
# From MPC102103
322P/SOHO,e,11.4679,351.5280,56.8724,2.507905,0.2481633,0.97987850,0.0000,08/21.0978/2023,2000,g 19.0,4.0
# From MPEC 2016-Y36
323P/SOHO,e,5.3367,324.3798,353.0539,2.582885,0.2374360,0.98483247,0.0000,01/17.7806/2021,2000,g 20.0,4.0
# From MPEC 2021-W31
324P/LaSagra,e,21.4028,270.5909,57.5824,3.095280,0.1809898,0.15405771,40.4601,12/15.0/2021,2000,g 13.0,4.0
# From MPC114609
325P/Yang-Gao,e,16.6938,257.5611,343.6987,3.523124,0.1490432,0.59342615,344.4737,12/15.0/2021,2000,g 14.0,4.0
# From MPC103849
326P/Hill,e,2.4710,99.8095,278.6184,4.062855,0.1203530,0.31796237,270.2640,12/15.0/2021,2000,g 13.5,4.0
# From MPC 97499
327P/Van Ness,e,36.2512,173.9854,185.0495,3.561835,0.1466201,0.56313432,321.6664,12/15.0/2021,2000,g 16.0,4.0
# From MPC109148
328P/LONEOS-Tucker,e,17.6733,341.6357,30.5086,4.193435,0.1147755,0.55242133,250.2787,12/15.0/2021,2000,g 14.5,4.0
# From MPC101101
329P/LINEAR-Catalina,e,21.6818,87.6676,343.5284,5.190369,0.0833502,0.67749152,183.9530,12/15.0/2021,2000,g 13.5,4.0
# From MPC105243
330P/Catalina,e,15.6976,293.0915,188.9190,6.626545,0.0577794,0.54836493,111.9358,12/15.0/2021,2000,g 12.0,4.0
# From MPEC 2021-BE3
331P/Gibbs,e,9.7379,216.7645,184.1567,3.004937,0.1892130,0.04109805,83.1388,12/15.0/2021,2000,g 12.0,4.0
# From MPEC 2016-K18
332P/Ikeya-Murakami,e,9.3800,3.7858,152.3327,3.088979,0.1815439,0.48944288,21.5305,12/15.0/2021,2000,g 18.0,4.0
# From MPEC 2016-EI8
332P-B/Ikeya-Murakami,e,9.3805,3.8028,152.3711,3.082329,0.1821317,0.48970701,359.9699,03/17.0/2016,2000,g 19.0,4.0
# From MPEC 2016-K18
332P-C/Ikeya-Murakami,e,9.3791,3.7862,152.3240,3.088945,0.1815469,0.48944834,21.5451,12/15.0/2021,2000,g 16.5,4.0
# From MPEC 2016-ED0
332P-D/Ikeya-Murakami,e,9.3761,3.7923,152.4393,3.081138,0.1822373,0.48977814,359.9486,03/17.0/2016,2000,g 19.0,4.0
# From MPEC 2016-ED0
332P-E/Ikeya-Murakami,e,9.3774,3.8228,152.2825,3.079877,0.1823493,0.48922008,359.9889,03/17.0/2016,2000,g 21.0,4.0
# From MPEC 2016-ED0
332P-F/Ikeya-Murakami,e,9.5293,3.4757,152.8203,3.163214,0.1751908,0.49918860,359.8501,03/17.0/2016,2000,g 21.0,4.0
# From MPEC 2016-ED0
332P-G/Ikeya-Murakami,e,9.2523,3.6955,154.4000,3.050519,0.1849880,0.49200362,359.9006,03/19.0/2016,2000,g 19.0,4.0
# From MPC100285
332P-H/Ikeya-Murakami,e,9.3796,3.7859,152.3247,3.089130,0.1815306,0.48948355,21.4781,12/15.0/2021,2000,g 19.0,4.0
# From MPEC 2016-ED0
332P-I/Ikeya-Murakami,e,9.3791,3.8048,152.3297,3.081767,0.1821815,0.48955490,359.9360,03/17.0/2016,2000,g 20.5,2.0
# From MPEC 2016-EI8
332P-J/Ikeya-Murakami,e,9.4296,3.6729,152.7712,3.115165,0.1792596,0.49429435,359.8613,03/17.0/2016,2000,g 20.5,2.0
# From MPEC 2020-L06
333P/LINEAR,e,131.9865,115.6321,25.9932,4.219890,0.1136979,0.73669906,237.1883,12/15.0/2021,2000,g 15.0,4.0
# From MPC115888
334P/NEAT,e,20.4172,90.6460,90.1080,6.838554,0.0551135,0.35098957,91.1225,12/15.0/2021,2000,g 10.5,4.0
# From MPEC 2021-U31
335P/Gibbs,e,7.2934,330.8475,162.3020,3.577318,0.1456692,0.54602793,325.0375,12/15.0/2021,2000,g 17.0,4.0
# From MPC105244
336P/McNaught,e,17.8320,298.2422,308.7555,5.033906,0.0872663,0.44462607,155.1095,12/15.0/2021,2000,g 13.5,4.0
# From MPEC 2021-N06
337P/WISE,e,15.3710,106.0639,161.0198,3.286328,0.1654389,0.49667092,327.2200,12/15.0/2021,2000,g 17.0,4.0
# From MPC104796
338P/McNaught,e,25.3842,9.7954,4.4256,3.895969,0.1281684,0.41178119,236.7209,12/15.0/2021,2000,g 12.0,4.0
# From MPC101101
339P/Gibbs,e,5.7333,172.7253,27.4977,3.697703,0.1386137,0.63545581,273.4940,12/15.0/2021,2000,g 17.0,4.0
# From MPEC 2021-UA9
340P/Boattini,e,2.0787,291.7050,35.8971,4.250813,0.1124595,0.28086775,207.9820,12/15.0/2021,2000,g 14.3,4.0
# From MPEC 2021-BE3
341P/Gibbs,e,3.7965,29.9716,312.1988,4.292403,0.1108290,0.41566686,224.3608,12/15.0/2021,2000,g 12.5,4.0
# From MPC101101
342P/SOHO,e,11.6663,27.7052,73.2666,3.042494,0.1857204,0.98276670,0.0000,10/19.3009/2021,2000,g  9.0,4.0
# From MPC109148
343P/NEAT-LONEOS,e,5.5863,257.1723,137.4024,5.459210,0.0772697,0.58462600,137.5999,12/15.0/2021,2000,g 14.0,4.0
# From MPC109148
344P/Read,e,3.4920,273.1541,140.3867,4.863915,0.0918809,0.42242115,171.7643,12/15.0/2021,2000,g 13.0,4.0
# From MPC109148
345P/LINEAR,e,2.7274,154.5111,196.4655,4.037293,0.1214979,0.22129960,239.8770,12/15.0/2021,2000,g 12.0,4.0
# From MPC110086
346P/Catalina,e,22.1910,102.4606,335.9589,4.474830,0.1041212,0.50264911,183.8406,12/15.0/2021,2000,g 14.0,4.0
# From MPC108599
347P/PANSTARRS,e,11.7517,261.0229,98.3799,3.605147,0.1439858,0.38596947,276.1955,12/15.0/2021,2000,g 15.0,4.0
# From MPEC 2021-W31
